[{"OBJECT_NAME":"ONEWEB-0349","OBJECT_ID":"2021-090C","EPOCH":"2026-03-09T16:24:00.057600","MEAN_MOTION":13.20771577,"ECCENTRICITY":0.00015938,"INCLINATION":87.917,"RA_OF_ASC_NODE":294.309,"ARG_OF_PERICENTER":86.4894,"MEAN_ANOMALY":273.6422,"EPHEMERIS_TYPE":0,"CLASSIFICATION_TYPE":"U","NORAD_CAT_ID":49281,"ELEMENT_SET_NO":999,"REV_AT_EPOCH":21669,"BSTAR":-0.00063391769,"MEAN_MOTION_DOT":-2.45e-6,"MEAN_MOTION_DDOT":0},{"OBJECT_NAME":"SL-12 R\/B(AUX MOTOR)","OBJECT_ID":"1983-127G","EPOCH":"2026-03-09T10:03:19.993824","MEAN_MOTION":4.62276359,"ECCENTRICITY":0.55106034,"INCLINATION":52.0364,"RA_OF_ASC_NODE":136.3059,"ARG_OF_PERICENTER":11.5978,"MEAN_ANOMALY":357.2488,"EPHEMERIS_TYPE":0,"CLASSIFICATION_TYPE":"U","NORAD_CAT_ID":14607,"ELEMENT_SET_NO":999,"REV_AT_EPOCH":68662,"BSTAR":0.00077486283,"MEAN_MOTION_DOT":4.66e-6,"MEAN_MOTION_DDOT":0}]
